[{"OBJECT_NAME":"ION SCV-008","OBJECT_ID":"2023-001AU","EPOCH":"2026-03-09T19:46:58.662912","MEAN_MOTION":15.2722664,"ECCENTRICITY":0.00151921,"INCLINATION":97.5676,"RA_OF_ASC_NODE":163.606,"ARG_OF_PERICENTER":8.542,"MEAN_ANOMALY":351.6074,"EPHEMERIS_TYPE":0,"CLASSIFICATION_TYPE":"U","NORAD_CAT_ID":55051,"ELEMENT_SET_NO":999,"REV_AT_EPOCH":17616,"BSTAR":0.00031422806,"MEAN_MOTION_DOT":8.336e-5,"MEAN_MOTION_DDOT":0},{"OBJECT_NAME":"STARLINK-30713","OBJECT_ID":"2023-148T","EPOCH":"2026-03-09T03:51:21.207168","MEAN_MOTION":15.30192059,"ECCENTRICITY":0.00012361,"INCLINATION":53.1601,"RA_OF_ASC_NODE":26.5766,"ARG_OF_PERICENTER":69.2154,"MEAN_ANOMALY":290.898,"EPHEMERIS_TYPE":0,"CLASSIFICATION_TYPE":"U","NORAD_CAT_ID":57952,"ELEMENT_SET_NO":999,"REV_AT_EPOCH":13834,"BSTAR":0.00018932402,"MEAN_MOTION_DOT":5.251e-5,"MEAN_MOTION_DDOT":0}]
